ONEWEB-0417             
1 50492U 21132Z   25344.32206061 -.00000010  00000+0 -58092-4 0  9997
2 50492  87.9188  12.9779 0001635 100.6273 259.5043 13.18686318196719
ONEWEB-0418             
1 50493U 21132AA  25344.33181270  .00000000  00000+0 -33679-4 0  9995
2 50493  87.9185  12.9602 0001471 108.6950 251.4342 13.18685195196771
ONEWEB-0419             
1 50494U 21132AB  25344.12247291  .00000027  00000+0  36305-4 0  9996
2 50494  87.9183  13.0018 0001458  94.9710 265.1589 13.18686017196666
ONEWEB-0420             
1 50495U 21132AC  25344.31545164 -.00000065  00000+0 -19862-3 0  9990
2 50495  87.9185  12.9752 0001945  91.3925 268.7430 13.18684473196682
ONEWEB-0421             
1 50496U 21132AD  25344.08123150 -.00000002  00000+0 -37343-4 0  9998
2 50496  87.9183  13.0146 0002015 100.9861 259.1498 13.18684798196694
ONEWEB-0424             
1 50497U 21132AE  25344.11752906  .00000059  00000+0  11745-3 0  9997
2 50497  87.9183  13.0030 0001431  88.4856 271.6440 13.18686638196727
ONEWEB-0426             
1 50498U 21132AF  25344.07793025 -.00000054  00000+0 -17014-3 0  9992
2 50498  87.9185  13.0022 0002012 115.2703 244.8638 13.18686213196660
ONEWEB-0427             
1 50499U 21132AG  25344.26762634  .00000050  00000+0  93986-4 0  9993
2 50499  87.9183  12.9522 0001618 101.2475 258.8839 13.18686690196717
ONEWEB-0429             
1 50500U 21132AH  25344.33030804  .00000035  00000+0  55769-4 0  9991
2 50500  87.9183  12.9718 0001873  90.6441 269.4906 13.18685962196695
ONEWEB-0430             
1 50501U 21132AJ  25344.31875863  .00000055  00000+0  10704-3 0  9993
2 50501  87.9185  12.9695 0001676  86.0167 274.1157 13.18686660196739
ONEWEB-0432             
1 50502U 21132AK  25344.12303449  .00000044  00000+0  78290-4 0  9992
2 50502  87.9179  12.9807 0000894 109.6031 250.5198 13.18676506196664
ONEWEB-0440             
1 50503U 21132AL  25344.33855719  .00000056  00000+0  11011-3 0  9998
2 50503  87.9184  12.9557 0002220  95.2844 264.8542 13.18685493196688
ONEWEB-0450             
1 50504U 21132AM  25344.33208572  .00000023  00000+0  26433-4 0  9997
2 50504  87.9179  12.9790 0001894  86.1797 273.9552 13.18688721196717
ONEWEB-0410             
1 51622U 22012A   25344.21215094 -.00000010  00000+0 -58080-4 0  9992
2 51622  87.9124  43.4194 0001962 145.5678 214.5581 13.17649666188819
ONEWEB-0411             
1 51623U 22012B   25344.25726636  .00000359  00000+0  99351-3 0  9995
2 51623  87.8806  73.9300 0001326  85.5354 274.5925 13.10369405184548
ONEWEB-0415             
1 51624U 22012C   25344.25395815  .00000589  00000+0  16505-2 0  9991
2 51624  87.8805  73.9326 0001433  96.3094 263.8197 13.10369382184542
ONEWEB-0416             
1 51625U 22012D   25344.26554909 -.00000211  00000+0 -64152-3 0  9990
2 51625  87.8804  73.9514 0001156 104.2788 255.8467 13.10370527184580
