[{"OBJECT_NAME":"ONEWEB-0417","OBJECT_ID":"2021-132Z","EPOCH":"2025-12-10T07:43:46.036704","MEAN_MOTION":13.18686318,"ECCENTRICITY":0.00016356,"INCLINATION":87.9188,"RA_OF_ASC_NODE":12.9779,"ARG_OF_PERICENTER":100.6273,"MEAN_ANOMALY":259.5043,"EPHEMERIS_TYPE":0,"CLASSIFICATION_TYPE":"U","NORAD_CAT_ID":50492,"ELEMENT_SET_NO":999,"REV_AT_EPOCH":19671,"BSTAR":-5.8092225e-5,"MEAN_MOTION_DOT":-1.0e-7,"MEAN_MOTION_DDOT":0},{"OBJECT_NAME":"ONEWEB-0418","OBJECT_ID":"2021-132AA","EPOCH":"2025-12-10T07:57:48.617280","MEAN_MOTION":13.18685195,"ECCENTRICITY":0.00014711,"INCLINATION":87.9185,"RA_OF_ASC_NODE":12.9602,"ARG_OF_PERICENTER":108.695,"MEAN_ANOMALY":251.4342,"EPHEMERIS_TYPE":0,"CLASSIFICATION_TYPE":"U","NORAD_CAT_ID":50493,"ELEMENT_SET_NO":999,"REV_AT_EPOCH":19677,"BSTAR":-3.367945e-5,"MEAN_MOTION_DOT":0,"MEAN_MOTION_DDOT":0},{"OBJECT_NAME":"ONEWEB-0419","OBJECT_ID":"2021-132AB","EPOCH":"2025-12-10T02:56:21.659424","MEAN_MOTION":13.18686017,"ECCENTRICITY":0.00014586,"INCLINATION":87.9183,"RA_OF_ASC_NODE":13.0018,"ARG_OF_PERICENTER":94.971,"MEAN_ANOMALY":265.1589,"EPHEMERIS_TYPE":0,"CLASSIFICATION_TYPE":"U","NORAD_CAT_ID":50494,"ELEMENT_SET_NO":999,"REV_AT_EPOCH":19666,"BSTAR":3.6305002e-5,"MEAN_MOTION_DOT":2.7e-7,"MEAN_MOTION_DDOT":0},{"OBJECT_NAME":"ONEWEB-0420","OBJECT_ID":"2021-132AC","EPOCH":"2025-12-10T07:34:15.021696","MEAN_MOTION":13.18684473,"ECCENTRICITY":0.00019452,"INCLINATION":87.9185,"RA_OF_ASC_NODE":12.9752,"ARG_OF_PERICENTER":91.3925,"MEAN_ANOMALY":268.743,"EPHEMERIS_TYPE":0,"CLASSIFICATION_TYPE":"U","NORAD_CAT_ID":50495,"ELEMENT_SET_NO":999,"REV_AT_EPOCH":19668,"BSTAR":-0.00019861611,"MEAN_MOTION_DOT":-6.5e-7,"MEAN_MOTION_DDOT":0},{"OBJECT_NAME":"ONEWEB-0421","OBJECT_ID":"2021-132AD","EPOCH":"2025-12-10T01:56:58.401600","MEAN_MOTION":13.18684798,"ECCENTRICITY":0.00020159,"INCLINATION":87.9183,"RA_OF_ASC_NODE":13.0146,"ARG_OF_PERICENTER":100.9861,"MEAN_ANOMALY":259.1498,"EPHEMERIS_TYPE":0,"CLASSIFICATION_TYPE":"U","NORAD_CAT_ID":50496,"ELEMENT_SET_NO":999,"REV_AT_EPOCH":19669,"BSTAR":-3.7342564e-5,"MEAN_MOTION_DOT":-2.0e-8,"MEAN_MOTION_DDOT":0},{"OBJECT_NAME":"ONEWEB-0424","OBJECT_ID":"2021-132AE","EPOCH":"2025-12-10T02:49:14.510784","MEAN_MOTION":13.18686638,"ECCENTRICITY":0.00014318,"INCLINATION":87.9183,"RA_OF_ASC_NODE":13.003,"ARG_OF_PERICENTER":88.4856,"MEAN_ANOMALY":271.644,"EPHEMERIS_TYPE":0,"CLASSIFICATION_TYPE":"U","NORAD_CAT_ID":50497,"ELEMENT_SET_NO":999,"REV_AT_EPOCH":19672,"BSTAR":0.00011744699,"MEAN_MOTION_DOT":5.9e-7,"MEAN_MOTION_DDOT":0},{"OBJECT_NAME":"ONEWEB-0426","OBJECT_ID":"2021-132AF","EPOCH":"2025-12-10T01:52:13.173600","MEAN_MOTION":13.18686213,"ECCENTRICITY":0.00020126,"INCLINATION":87.9185,"RA_OF_ASC_NODE":13.0022,"ARG_OF_PERICENTER":115.2703,"MEAN_ANOMALY":244.8638,"EPHEMERIS_TYPE":0,"CLASSIFICATION_TYPE":"U","NORAD_CAT_ID":50498,"ELEMENT_SET_NO":999,"REV_AT_EPOCH":19666,"BSTAR":-0.00017013996,"MEAN_MOTION_DOT":-5.4e-7,"MEAN_MOTION_DDOT":0},{"OBJECT_NAME":"ONEWEB-0427","OBJECT_ID":"2021-132AG","EPOCH":"2025-12-10T06:25:22.915776","MEAN_MOTION":13.1868669,"ECCENTRICITY":0.00016186,"INCLINATION":87.9183,"RA_OF_ASC_NODE":12.9522,"ARG_OF_PERICENTER":101.2475,"MEAN_ANOMALY":258.8839,"EPHEMERIS_TYPE":0,"CLASSIFICATION_TYPE":"U","NORAD_CAT_ID":50499,"ELEMENT_SET_NO":999,"REV_AT_EPOCH":19671,"BSTAR":9.3986278e-5,"MEAN_MOTION_DOT":5.0e-7,"MEAN_MOTION_DDOT":0},{"OBJECT_NAME":"ONEWEB-0429","OBJECT_ID":"2021-132AH","EPOCH":"2025-12-10T07:55:38.614656","MEAN_MOTION":13.18685962,"ECCENTRICITY":0.00018732,"INCLINATION":87.9183,"RA_OF_ASC_NODE":12.9718,"ARG_OF_PERICENTER":90.6441,"MEAN_ANOMALY":269.4906,"EPHEMERIS_TYPE":0,"CLASSIFICATION_TYPE":"U","NORAD_CAT_ID":50500,"ELEMENT_SET_NO":999,"REV_AT_EPOCH":19669,"BSTAR":5.576929e-5,"MEAN_MOTION_DOT":3.5e-7,"MEAN_MOTION_DDOT":0},{"OBJECT_NAME":"ONEWEB-0430","OBJECT_ID":"2021-132AJ","EPOCH":"2025-12-10T07:39:00.745632","MEAN_MOTION":13.1868666,"ECCENTRICITY":0.00016766,"INCLINATION":87.9185,"RA_OF_ASC_NODE":12.9695,"ARG_OF_PERICENTER":86.0167,"MEAN_ANOMALY":274.1157,"EPHEMERIS_TYPE":0,"CLASSIFICATION_TYPE":"U","NORAD_CAT_ID":50501,"ELEMENT_SET_NO":999,"REV_AT_EPOCH":19673,"BSTAR":0.0001070403,"MEAN_MOTION_DOT":5.5e-7,"MEAN_MOTION_DDOT":0},{"OBJECT_NAME":"ONEWEB-0432","OBJECT_ID":"2021-132AK","EPOCH":"2025-12-10T02:57:10.179936","MEAN_MOTION":13.18676506,"ECCENTRICITY":8.943e-5,"INCLINATION":87.9179,"RA_OF_ASC_NODE":12.9807,"ARG_OF_PERICENTER":109.6031,"MEAN_ANOMALY":250.5198,"EPHEMERIS_TYPE":0,"CLASSIFICATION_TYPE":"U","NORAD_CAT_ID":50502,"ELEMENT_SET_NO":999,"REV_AT_EPOCH":19666,"BSTAR":7.8290015e-5,"MEAN_MOTION_DOT":4.4e-7,"MEAN_MOTION_DDOT":0},{"OBJECT_NAME":"ONEWEB-0440","OBJECT_ID":"2021-132AL","EPOCH":"2025-12-10T08:07:31.341216","MEAN_MOTION":13.18685493,"ECCENTRICITY":0.00022207,"INCLINATION":87.9184,"RA_OF_ASC_NODE":12.9557,"ARG_OF_PERICENTER":95.2844,"MEAN_ANOMALY":264.8542,"EPHEMERIS_TYPE":0,"CLASSIFICATION_TYPE":"U","NORAD_CAT_ID":50503,"ELEMENT_SET_NO":999,"REV_AT_EPOCH":19668,"BSTAR":0.0001101141,"MEAN_MOTION_DOT":5.6e-7,"MEAN_MOTION_DDOT":0},{"OBJECT_NAME":"ONEWEB-0450","OBJECT_ID":"2021-132AM","EPOCH":"2025-12-10T07:58:12.206208","MEAN_MOTION":13.18688721,"ECCENTRICITY":0.0001894,"INCLINATION":87.9179,"RA_OF_ASC_NODE":12.979,"ARG_OF_PERICENTER":86.1797,"MEAN_ANOMALY":273.9552,"EPHEMERIS_TYPE":0,"CLASSIFICATION_TYPE":"U","NORAD_CAT_ID":50504,"ELEMENT_SET_NO":999,"REV_AT_EPOCH":19671,"BSTAR":2.6433489e-5,"MEAN_MOTION_DOT":2.3e-7,"MEAN_MOTION_DDOT":0},{"OBJECT_NAME":"ONEWEB-0410","OBJECT_ID":"2022-012A","EPOCH":"2025-12-10T05:05:29.841216","MEAN_MOTION":13.17649666,"ECCENTRICITY":0.0001962,"INCLINATION":87.9124,"RA_OF_ASC_NODE":43.4194,"ARG_OF_PERICENTER":145.5678,"MEAN_ANOMALY":214.5581,"EPHEMERIS_TYPE":0,"CLASSIFICATION_TYPE":"U","NORAD_CAT_ID":51622,"ELEMENT_SET_NO":999,"REV_AT_EPOCH":18881,"BSTAR":-5.8080398e-5,"MEAN_MOTION_DOT":-1.0e-7,"MEAN_MOTION_DDOT":0},{"OBJECT_NAME":"ONEWEB-0411","OBJECT_ID":"2022-012B","EPOCH":"2025-12-10T06:10:27.813504","MEAN_MOTION":13.10369405,"ECCENTRICITY":0.00013266,"INCLINATION":87.8806,"RA_OF_ASC_NODE":73.93,"ARG_OF_PERICENTER":85.5354,"MEAN_ANOMALY":274.5925,"EPHEMERIS_TYPE":0,"CLASSIFICATION_TYPE":"U","NORAD_CAT_ID":51623,"ELEMENT_SET_NO":999,"REV_AT_EPOCH":18454,"BSTAR":0.00099350648,"MEAN_MOTION_DOT":3.59e-6,"MEAN_MOTION_DDOT":0},{"OBJECT_NAME":"ONEWEB-0415","OBJECT_ID":"2022-012C","EPOCH":"2025-12-10T06:05:41.984160","MEAN_MOTION":13.10369382,"ECCENTRICITY":0.00014338,"INCLINATION":87.8805,"RA_OF_ASC_NODE":73.9326,"ARG_OF_PERICENTER":96.3094,"MEAN_ANOMALY":263.8197,"EPHEMERIS_TYPE":0,"CLASSIFICATION_TYPE":"U","NORAD_CAT_ID":51624,"ELEMENT_SET_NO":999,"REV_AT_EPOCH":18454,"BSTAR":0.0016504503,"MEAN_MOTION_DOT":5.89e-6,"MEAN_MOTION_DDOT":0},{"OBJECT_NAME":"ONEWEB-0416","OBJECT_ID":"2022-012D","EPOCH":"2025-12-10T06:22:23.441376","MEAN_MOTION":13.10370527,"ECCENTRICITY":0.00011566,"INCLINATION":87.8804,"RA_OF_ASC_NODE":73.9514,"ARG_OF_PERICENTER":104.2788,"MEAN_ANOMALY":255.8467,"EPHEMERIS_TYPE":0,"CLASSIFICATION_TYPE":"U","NORAD_CAT_ID":51625,"ELEMENT_SET_NO":999,"REV_AT_EPOCH":18458,"BSTAR":-0.00064151987,"MEAN_MOTION_DOT":-2.11e-6,"MEAN_MOTION_DDOT":0}]
